CCSDS_OMM_VERS = 2.0
CREATION_DATE  = 
ORIGINATOR     = 

OBJECT_NAME    = STARLINK-36325
OBJECT_ID      = 2026-034M
CENTER_NAME    = EARTH
REF_FRAME      = TEME
TIME_SYSTEM    = UTC
MEAN_ELEMENT_THEORY = SGP/SGP4

EPOCH          = 2026-03-12T19:42:25.251840
MEAN_MOTION    = 15.81000759
ECCENTRICITY   = .000082
INCLINATION    = 53.1582
RA_OF_ASC_NODE = 195.5667
ARG_OF_PERICENTER = 101.6865
MEAN_ANOMALY   = 258.4250

EPHEMERIS_TYPE = 0
CLASSIFICATION_TYPE = U
NORAD_CAT_ID   = 67861
ELEMENT_SET_NO = 999
REV_AT_EPOCH   = 443
BSTAR          = .13399E-2
MEAN_MOTION_DOT = .273926E-2
MEAN_MOTION_DDOT = 0

CCSDS_OMM_VERS = 2.0
CREATION_DATE  = 
ORIGINATOR     = 

OBJECT_NAME    = STARLINK-36332
OBJECT_ID      = 2026-034N
CENTER_NAME    = EARTH
REF_FRAME      = TEME
TIME_SYSTEM    = UTC
MEAN_ELEMENT_THEORY = SGP/SGP4

EPOCH          = 2026-03-12T19:41:20.617728
MEAN_MOTION    = 15.80989201
ECCENTRICITY   = .000122
INCLINATION    = 53.1582
RA_OF_ASC_NODE = 195.5620
ARG_OF_PERICENTER = 89.0467
MEAN_ANOMALY   = 271.0696

EPHEMERIS_TYPE = 0
CLASSIFICATION_TYPE = U
NORAD_CAT_ID   = 67862
ELEMENT_SET_NO = 999
REV_AT_EPOCH   = 443
BSTAR          = .11885E-2
MEAN_MOTION_DOT = .241843E-2
MEAN_MOTION_DDOT = 0

CCSDS_OMM_VERS = 2.0
CREATION_DATE  = 
ORIGINATOR     = 

OBJECT_NAME    = STARLINK-36835
OBJECT_ID      = 2026-034P
CENTER_NAME    = EARTH
REF_FRAME      = TEME
TIME_SYSTEM    = UTC
MEAN_ELEMENT_THEORY = SGP/SGP4

EPOCH          = 2026-03-12T22:42:20.168928
MEAN_MOTION    = 15.80990700
ECCENTRICITY   = .0001394
INCLINATION    = 53.1586
RA_OF_ASC_NODE = 194.9215
ARG_OF_PERICENTER = 54.7404
MEAN_ANOMALY   = 305.3749

EPHEMERIS_TYPE = 0
CLASSIFICATION_TYPE = U
NORAD_CAT_ID   = 67863
ELEMENT_SET_NO = 999
REV_AT_EPOCH   = 445
BSTAR          = .14932E-2
MEAN_MOTION_DOT = .306366E-2
MEAN_MOTION_DDOT = 0

CCSDS_OMM_VERS = 2.0
CREATION_DATE  = 
ORIGINATOR     = 

OBJECT_NAME    = STARLINK-36831
OBJECT_ID      = 2026-034Q
CENTER_NAME    = EARTH
REF_FRAME      = TEME
TIME_SYSTEM    = UTC
MEAN_ELEMENT_THEORY = SGP/SGP4

EPOCH          = 2026-03-12T22:41:15.256608
MEAN_MOTION    = 15.80983776
ECCENTRICITY   = .0001403
INCLINATION    = 53.1582
RA_OF_ASC_NODE = 194.9172
ARG_OF_PERICENTER = 55.8130
MEAN_ANOMALY   = 304.3026

EPHEMERIS_TYPE = 0
CLASSIFICATION_TYPE = U
NORAD_CAT_ID   = 67864
ELEMENT_SET_NO = 999
REV_AT_EPOCH   = 445
BSTAR          = .12138E-2
MEAN_MOTION_DOT = .247109E-2
MEAN_MOTION_DDOT = 0

CCSDS_OMM_VERS = 2.0
CREATION_DATE  = 
ORIGINATOR     = 

OBJECT_NAME    = STARLINK-36738
OBJECT_ID      = 2026-034R
CENTER_NAME    = EARTH
REF_FRAME      = TEME
TIME_SYSTEM    = UTC
MEAN_ELEMENT_THEORY = SGP/SGP4

EPOCH          = 2026-03-12T22:40:10.503264
MEAN_MOTION    = 15.80993650
ECCENTRICITY   = .0001279
INCLINATION    = 53.1582
RA_OF_ASC_NODE = 194.9117
ARG_OF_PERICENTER = 65.2941
MEAN_ANOMALY   = 294.8215

EPHEMERIS_TYPE = 0
CLASSIFICATION_TYPE = U
NORAD_CAT_ID   = 67865
ELEMENT_SET_NO = 999
REV_AT_EPOCH   = 445
BSTAR          = .1386E-2
MEAN_MOTION_DOT = .283589E-2
MEAN_MOTION_DDOT = 0

CCSDS_OMM_VERS = 2.0
CREATION_DATE  = 
ORIGINATOR     = 

OBJECT_NAME    = STARLINK-36780
OBJECT_ID      = 2026-034S
CENTER_NAME    = EARTH
REF_FRAME      = TEME
TIME_SYSTEM    = UTC
MEAN_ELEMENT_THEORY = SGP/SGP4

EPOCH          = 2026-03-12T22:39:05.489856
MEAN_MOTION    = 15.81001598
ECCENTRICITY   = .0001025
INCLINATION    = 53.1588
RA_OF_ASC_NODE = 194.9049
ARG_OF_PERICENTER = 61.6894
MEAN_ANOMALY   = 298.4232

EPHEMERIS_TYPE = 0
CLASSIFICATION_TYPE = U
NORAD_CAT_ID   = 67866
ELEMENT_SET_NO = 999
REV_AT_EPOCH   = 445
BSTAR          = .14224E-2
MEAN_MOTION_DOT = .291438E-2
MEAN_MOTION_DDOT = 0

CCSDS_OMM_VERS = 2.0
CREATION_DATE  = 
ORIGINATOR     = 

OBJECT_NAME    = STARLINK-36761
OBJECT_ID      = 2026-034T
CENTER_NAME    = EARTH
REF_FRAME      = TEME
TIME_SYSTEM    = UTC
MEAN_ELEMENT_THEORY = SGP/SGP4

EPOCH          = 2026-03-12T22:38:00.819456
MEAN_MOTION    = 15.80951350
ECCENTRICITY   = .0001274
INCLINATION    = 53.1588
RA_OF_ASC_NODE = 194.9005
ARG_OF_PERICENTER = 64.6220
MEAN_ANOMALY   = 295.4935

EPHEMERIS_TYPE = 0
CLASSIFICATION_TYPE = U
NORAD_CAT_ID   = 67867
ELEMENT_SET_NO = 999
REV_AT_EPOCH   = 445
BSTAR          = .8121E-3
MEAN_MOTION_DOT = .163238E-2
MEAN_MOTION_DDOT = 0

CCSDS_OMM_VERS = 2.0
CREATION_DATE  = 
ORIGINATOR     = 

OBJECT_NAME    = STARLINK-36762
OBJECT_ID      = 2026-034U
CENTER_NAME    = EARTH
REF_FRAME      = TEME
TIME_SYSTEM    = UTC
MEAN_ELEMENT_THEORY = SGP/SGP4

EPOCH          = 2026-03-12T22:36:56.071296
MEAN_MOTION    = 15.80943252
ECCENTRICITY   = .0001189
INCLINATION    = 53.1587
RA_OF_ASC_NODE = 194.8955
ARG_OF_PERICENTER = 63.1563
MEAN_ANOMALY   = 296.9581

EPHEMERIS_TYPE = 0
CLASSIFICATION_TYPE = U
NORAD_CAT_ID   = 67868
ELEMENT_SET_NO = 999
REV_AT_EPOCH   = 445
BSTAR          = .81697E-3
MEAN_MOTION_DOT = .164175E-2
MEAN_MOTION_DDOT = 0

CCSDS_OMM_VERS = 2.0
CREATION_DATE  = 
ORIGINATOR     = 

OBJECT_NAME    = STARLINK-36779
OBJECT_ID      = 2026-034V
CENTER_NAME    = EARTH
REF_FRAME      = TEME
TIME_SYSTEM    = UTC
MEAN_ELEMENT_THEORY = SGP/SGP4

EPOCH          = 2026-03-12T22:35:51.303264
MEAN_MOTION    = 15.80947232
ECCENTRICITY   = .0001306
INCLINATION    = 53.1588
RA_OF_ASC_NODE = 194.8901
ARG_OF_PERICENTER = 56.9774
MEAN_ANOMALY   = 303.1374

EPHEMERIS_TYPE = 0
CLASSIFICATION_TYPE = U
NORAD_CAT_ID   = 67869
ELEMENT_SET_NO = 999
REV_AT_EPOCH   = 445
BSTAR          = .88336E-3
MEAN_MOTION_DOT = .177892E-2
MEAN_MOTION_DDOT = 0

CCSDS_OMM_VERS = 2.0
CREATION_DATE  = 
ORIGINATOR     = 

OBJECT_NAME    = STARLINK-36770
OBJECT_ID      = 2026-034W
CENTER_NAME    = EARTH
REF_FRAME      = TEME
TIME_SYSTEM    = UTC
MEAN_ELEMENT_THEORY = SGP/SGP4

EPOCH          = 2026-03-12T22:33:41.365440
MEAN_MOTION    = 15.81002349
ECCENTRICITY   = .0000654
INCLINATION    = 53.1586
RA_OF_ASC_NODE = 194.8793
ARG_OF_PERICENTER = 14.2977
MEAN_ANOMALY   = 345.8064

EPHEMERIS_TYPE = 0
CLASSIFICATION_TYPE = U
NORAD_CAT_ID   = 67870
ELEMENT_SET_NO = 999
REV_AT_EPOCH   = 445
BSTAR          = .15087E-2
MEAN_MOTION_DOT = .309863E-2
MEAN_MOTION_DDOT = 0

CCSDS_OMM_VERS = 2.0
CREATION_DATE  = 
ORIGINATOR     = 

OBJECT_NAME    = STARLINK-36769
OBJECT_ID      = 2026-034X
CENTER_NAME    = EARTH
REF_FRAME      = TEME
TIME_SYSTEM    = UTC
MEAN_ELEMENT_THEORY = SGP/SGP4

EPOCH          = 2026-03-12T22:34:46.907616
MEAN_MOTION    = 15.80949760
ECCENTRICITY   = .0001053
INCLINATION    = 53.1584
RA_OF_ASC_NODE = 194.8852
ARG_OF_PERICENTER = 72.5599
MEAN_ANOMALY   = 287.5539

EPHEMERIS_TYPE = 0
CLASSIFICATION_TYPE = U
NORAD_CAT_ID   = 67871
ELEMENT_SET_NO = 999
REV_AT_EPOCH   = 445
BSTAR          = .9305E-3
MEAN_MOTION_DOT = .187658E-2
MEAN_MOTION_DDOT = 0

CCSDS_OMM_VERS = 2.0
CREATION_DATE  = 
ORIGINATOR     = 

OBJECT_NAME    = STARLINK-36786
OBJECT_ID      = 2026-034Y
CENTER_NAME    = EARTH
REF_FRAME      = TEME
TIME_SYSTEM    = UTC
MEAN_ELEMENT_THEORY = SGP/SGP4

EPOCH          = 2026-03-12T22:32:37.389696
MEAN_MOTION    = 15.80896935
ECCENTRICITY   = .0002292
INCLINATION    = 53.1586
RA_OF_ASC_NODE = 194.8759
ARG_OF_PERICENTER = 43.0159
MEAN_ANOMALY   = 317.1043

EPHEMERIS_TYPE = 0
CLASSIFICATION_TYPE = U
NORAD_CAT_ID   = 67872
ELEMENT_SET_NO = 999
REV_AT_EPOCH   = 445
BSTAR          = .45773E-3
MEAN_MOTION_DOT = .90702E-3
MEAN_MOTION_DDOT = 0

